{"type": "FeatureCollection", "features": [ {"type": "Feature", "properties": {"norad_id": 34634, "name": "COSMOS 2251 DEB", "group": "cosmos-2251-debris", "lat": -50.18687997045642, "lon": 14.127039904049026, "alt_km": 744.0834695004596, "timestamp": "2025-12-13T03:42:11.666892+00:00", "meta": {"OBJECT_NAME": "COSMOS 2251 DEB", "OBJECT_ID": "1993-036XF", "EPOCH": "2025-12-12T03:20:54.084768", "MEAN_MOTION": 14.55656438, "ECCENTRICITY": 0.0044187, "INCLINATION": 74.0528, "RA_OF_ASC_NODE": 36.109, "ARG_OF_PERICENTER": 143.6865, "MEAN_ANOMALY": 247.5552, "EPHEMERIS_TYPE": 0, "CLASSIFICATION_TYPE": "U", "NORAD_CAT_ID": 34634, "ELEMENT_SET_NO": 999, "REV_AT_EPOCH": 88773, "BSTAR": 0.00053305874, "MEAN_MOTION_DOT": 2.33e-05, "MEAN_MOTION_DDOT": 0}, "tle": {"line1": "1 34634U 93036XF  25346.13951487  .00002330  00000+0  53306-3 0  9996", "line2": "2 34634  74.0528  36.1090 0044187 143.6865 247.5552 14.55656438887734"}}, "geometry": {"type": "Point", "coordinates": [14.127039904049026, -50.18687997045642]}}, {"type": "Feature", "properties": {"norad_id": 34635, "name": "COSMOS 2251 DEB", "group": "cosmos-2251-debris", "lat": -7.516902475108786, "lon": -107.92243334952897, "alt_km": 656.9231763297012, "timestamp": "2025-12-13T03:42:11.666903+00:00", "meta": {"OBJECT_NAME": "COSMOS 2251 DEB", "OBJECT_ID": "1993-036XG", "EPOCH": "2025-12-12T05:44:07.510848", "MEAN_MOTION": 14.6826075, "ECCENTRICITY": 0.00286148, "INCLINATION": 74.0451, "RA_OF_ASC_NODE": 71.6822, "ARG_OF_PERICENTER": 140.5312, "MEAN_ANOMALY": 250.7214, "EPHEMERIS_TYPE": 0, "CLASSIFICATION_TYPE": "U", "NORAD_CAT_ID": 34635, "ELEMENT_SET_NO": 999, "REV_AT_EPOCH": 73212, "BSTAR": 0.0019761233, "MEAN_MOTION_DOT": 0.00011452, "MEAN_MOTION_DDOT": 0}, "tle": {"line1": "1 34635U 93036XG  25346.23897582  .00011452  00000+0  19761-2 0  9994", "line2": "2 34635  74.0451  71.6822 0028614 140.5312 250.7214 14.68260750732122"}}, "geometry": {"type": "Point", "coordinates": [-107.92243334952897, -7.516902475108786]}}, {"type": "Feature", "properties": {"norad_id": 34637, "name": "COSMOS 2251 DEB", "group": "cosmos-2251-debris", "lat": 4.88239825800944, "lon": 101.76690809988357, "alt_km": 728.9576059218134, "timestamp": "2025-12-13T03:42:11.666913+00:00", "meta": {"OBJECT_NAME": "COSMOS 2251 DEB", "OBJECT_ID": "1993-036XJ", "EPOCH": "2025-12-11T10:55:13.914624", "MEAN_MOTION": 14.60079647, "ECCENTRICITY": 0.00499195, "INCLINATION": 74.0487, "RA_OF_ASC_NODE": 103.6062, "ARG_OF_PERICENTER": 174.409, "MEAN_ANOMALY": 262.6034, "EPHEMERIS_TYPE": 0, "CLASSIFICATION_TYPE": "U", "NORAD_CAT_ID": 34637, "ELEMENT_SET_NO": 999, "REV_AT_EPOCH": 88508, "BSTAR": 0.0019671957, "MEAN_MOTION_DOT": 9.607e-05, "MEAN_MOTION_DDOT": 0}, "tle": {"line1": "1 34637U 93036XJ  25345.45502216  .00009607  00000+0  19672-2 0  9996", "line2": "2 34637  74.0487 103.6062 0049919 174.4090 262.6034 14.60079647885086"}}, "geometry": {"type": "Point", "coordinates": [101.76690809988357, 4.88239825800944]}}, {"type": "Feature", "properties": {"norad_id": 34641, "name": "COSMOS 2251 DEB", "group": "cosmos-2251-debris", "lat": -15.392207312733891, "lon": 76.27856793652695, "alt_km": 710.7804156458069, "timestamp": "2025-12-13T03:42:11.666923+00:00", "meta": {"OBJECT_NAME": "COSMOS 2251 DEB", "OBJECT_ID": "1993-036XN", "EPOCH": "2025-12-11T09:06:36.556992", "MEAN_MOTION": 14.51989517, "ECCENTRICITY": 0.00181936, "INCLINATION": 73.8385, "RA_OF_ASC_NODE": 84.2398, "ARG_OF_PERICENTER": 358.956, "MEAN_ANOMALY": 72.0869, "EPHEMERIS_TYPE": 0, "CLASSIFICATION_TYPE": "U", "NORAD_CAT_ID": 34641, "ELEMENT_SET_NO": 999, "REV_AT_EPOCH": 88236, "BSTAR": 0.0020110528, "MEAN_MOTION_DOT": 8.121e-05, "MEAN_MOTION_DDOT": 0}, "tle": {"line1": "1 34641U 93036XN  25345.37958978  .00008121  00000+0  20111-2 0  9992", "line2": "2 34641  73.8385  84.2398 0018193 358.9560  72.0869 14.51989517882365"}}, "geometry": {"type": "Point", "coordinates": [76.27856793652695, -15.392207312733891]}}, {"type": "Feature", "properties": {"norad_id": 34642, "name": "COSMOS 2251 DEB", "group": "cosmos-2251-debris", "lat": -10.880632707619688, "lon": -24.075049721881545, "alt_km": 1049.7850149398928, "timestamp": "2025-12-13T03:42:11.666933+00:00", "meta": {"OBJECT_NAME": "COSMOS 2251 DEB", "OBJECT_ID": "1993-036XP", "EPOCH": "2025-12-10T11:16:39.296928", "MEAN_MOTION": 13.98964055, "ECCENTRICITY": 0.02073989, "INCLINATION": 74.0053, "RA_OF_ASC_NODE": 343.733, "ARG_OF_PERICENTER": 164.1427, "MEAN_ANOMALY": 350.8698, "EPHEMERIS_TYPE": 0, "CLASSIFICATION_TYPE": "U", "NORAD_CAT_ID": 34642, "ELEMENT_SET_NO": 999, "REV_AT_EPOCH": 85261, "BSTAR": 0.0012238481, "MEAN_MOTION_DOT": 2.102e-05, "MEAN_MOTION_DDOT": 0}, "tle": {"line1": "1 34642U 93036XP  25344.46989927  .00002102  00000+0  12238-2 0  9994", "line2": "2 34642  74.0053 343.7330 0207398 164.1427 350.8698 13.98964055852618"}}, "geometry": {"type": "Point", "coordinates": [-24.075049721881545, -10.880632707619688]}}, {"type": "Feature", "properties": {"norad_id": 34671, "name": "COSMOS 2251 DEB", "group": "cosmos-2251-debris", "lat": 64.37785055504781, "lon": -83.17553861700254, "alt_km": 666.0052966205913, "timestamp": "2025-12-13T03:42:11.666944+00:00", "meta": {"OBJECT_NAME": "COSMOS 2251 DEB", "OBJECT_ID": "1993-036XR", "EPOCH": "2025-12-12T03:10:56.254656", "MEAN_MOTION": 14.66920812, "ECCENTRICITY": 0.00114673, "INCLINATION": 74.0268, "RA_OF_ASC_NODE": 135.4679, "ARG_OF_PERICENTER": 215.5537, "MEAN_ANOMALY": 261.4636, "EPHEMERIS_TYPE": 0, "CLASSIFICATION_TYPE": "U", "NORAD_CAT_ID": 34671, "ELEMENT_SET_NO": 999, "REV_AT_EPOCH": 88288, "BSTAR": 0.0026529037, "MEAN_MOTION_DOT": 0.00014858, "MEAN_MOTION_DDOT": 0}, "tle": {"line1": "1 34671U 93036XR  25346.13259554  .00014858  00000+0  26529-2 0  9997", "line2": "2 34671  74.0268 135.4679 0011467 215.5537 261.4636 14.66920812882883"}}, "geometry": {"type": "Point", "coordinates": [-83.17553861700254, 64.37785055504781]}}, {"type": "Feature", "properties": {"norad_id": 34672, "name": "COSMOS 2251 DEB", "group": "cosmos-2251-debris", "lat": -59.858776078772685, "lon": 154.37108903012128, "alt_km": 788.5712828115384, "timestamp": "2025-12-13T03:42:11.666954+00:00", "meta": {"OBJECT_NAME": "COSMOS 2251 DEB", "OBJECT_ID": "1993-036XS", "EPOCH": "2025-12-11T16:16:44.249952", "MEAN_MOTION": 14.36406242, "ECCENTRICITY": 0.00236356, "INCLINATION": 74.0334, "RA_OF_ASC_NODE": 307.539, "ARG_OF_PERICENTER": 19.6523, "MEAN_ANOMALY": 155.1005, "EPHEMERIS_TYPE": 0, "CLASSIFICATION_TYPE": "U", "NORAD_CAT_ID": 34672, "ELEMENT_SET_NO": 999, "REV_AT_EPOCH": 65162, "BSTAR": 0.00043649208, "MEAN_MOTION_DOT": 1.257e-05, "MEAN_MOTION_DDOT": 0}, "tle": {"line1": "1 34672U 93036XS  25345.67828993  .00001257  00000+0  43649-3 0  9997", "line2": "2 34672  74.0334 307.5390 0023635  19.6523 155.1005 14.36406242651626"}}, "geometry": {"type": "Point", "coordinates": [154.37108903012128, -59.858776078772685]}}, {"type": "Feature", "properties": {"norad_id": 34678, "name": "COSMOS 2251 DEB", "group": "cosmos-2251-debris", "lat": 54.34096208070956, "lon": 28.450374811093052, "alt_km": 768.5525624165803, "timestamp": "2025-12-13T03:42:11.666964+00:00", "meta": {"OBJECT_NAME": "COSMOS 2251 DEB", "OBJECT_ID": "1993-036XY", "EPOCH": "2025-12-12T04:27:26.150112", "MEAN_MOTION": 14.30064907, "ECCENTRICITY": 0.00244038, "INCLINATION": 74.0378, "RA_OF_ASC_NODE": 6.7003, "ARG_OF_PERICENTER": 56.0095, "MEAN_ANOMALY": 57.2199, "EPHEMERIS_TYPE": 0, "CLASSIFICATION_TYPE": "U", "NORAD_CAT_ID": 34678, "ELEMENT_SET_NO": 999, "REV_AT_EPOCH": 87371, "BSTAR": 4.2236073e-05, "MEAN_MOTION_DOT": 8.4e-07, "MEAN_MOTION_DDOT": 0}, "tle": {"line1": "1 34678U 93036XY  25346.18571933  .00000084  00000+0  42236-4 0  9998", "line2": "2 34678  74.0378   6.7003 0024403  56.0095  57.2199 14.30064907873716"}}, "geometry": {"type": "Point", "coordinates": [28.450374811093052, 54.34096208070956]}}, {"type": "Feature", "properties": {"norad_id": 34680, "name": "COSMOS 2251 DEB", "group": "cosmos-2251-debris", "lat": 24.152619827929563, "lon": 136.43854064115007, "alt_km": 694.6666541591985, "timestamp": "2025-12-13T03:42:11.666975+00:00", "meta": {"OBJECT_NAME": "COSMOS 2251 DEB", "OBJECT_ID": "1993-036YA", "EPOCH": "2025-12-11T21:03:28.656000", "MEAN_MOTION": 14.60608857, "ECCENTRICITY": 0.0006749, "INCLINATION": 74.0425, "RA_OF_ASC_NODE": 131.5036, "ARG_OF_PERICENTER": 228.2875, "MEAN_ANOMALY": 285.5668, "EPHEMERIS_TYPE": 0, "CLASSIFICATION_TYPE": "U", "NORAD_CAT_ID": 34680, "ELEMENT_SET_NO": 999, "REV_AT_EPOCH": 88315, "BSTAR": 0.0019557, "MEAN_MOTION_DOT": 9.498e-05, "MEAN_MOTION_DDOT": 0}, "tle": {"line1": "1 34680U 93036YA  25345.87741500  .00009498  00000+0  19557-2 0  9991", "line2": "2 34680  74.0425 131.5036 0006749 228.2875 285.5668 14.60608857883154"}}, "geometry": {"type": "Point", "coordinates": [136.43854064115007, 24.152619827929563]}}, {"type": "Feature", "properties": {"norad_id": 34681, "name": "COSMOS 2251 DEB", "group": "cosmos-2251-debris", "lat": -66.74112492542912, "lon": -112.09304101947407, "alt_km": 616.740258446227, "timestamp": "2025-12-13T03:42:11.666985+00:00", "meta": {"OBJECT_NAME": "COSMOS 2251 DEB", "OBJECT_ID": "1993-036YB", "EPOCH": "2025-12-12T07:31:37.922304", "MEAN_MOTION": 14.83204547, "ECCENTRICITY": 0.00256149, "INCLINATION": 74.0622, "RA_OF_ASC_NODE": 291.2386, "ARG_OF_PERICENTER": 348.0286, "MEAN_ANOMALY": 132.4775, "EPHEMERIS_TYPE": 0, "CLASSIFICATION_TYPE": "U", "NORAD_CAT_ID": 34681, "ELEMENT_SET_NO": 999, "REV_AT_EPOCH": 89264, "BSTAR": 0.0023084136, "MEAN_MOTION_DOT": 0.00018983, "MEAN_MOTION_DDOT": 0}, "tle": {"line1": "1 34681U 93036YB  25346.31363336  .00018983  00000+0  23084-2 0  9998", "line2": "2 34681  74.0622 291.2386 0025614 348.0286 132.4775 14.83204547892641"}}, "geometry": {"type": "Point", "coordinates": [-112.09304101947407, -66.74112492542912]}}]}